GSAT0101 (GALILEO-PFM)  
1 37846U 11060A   26053.46432651 -.00000082  00000+0  00000+0 0  9992
2 37846  57.0318 344.8758 0003975 357.0591   2.9533  1.70475478 89166
GSAT0102 (GALILEO-FM2)  
1 37847U 11060B   26060.06318653 -.00000106  00000+0  00000+0 0  9999
2 37847  57.0301 344.6971 0005422 341.2092 154.1953  1.70475778 89286
GSAT0103 (GALILEO-FM3)  
1 38857U 12055A   26061.13039064  .00000014  00000+0  00000+0 0  9998
2 38857  55.7369 104.4827 0005349 284.8926  75.1340  1.70473355 83189
GSAT0201 (GALILEO 5)    
1 40128U 14050A   26059.54184441  .00000000  00000+0  00000+0 0  9996
2 40128  48.9916 277.8823 1657122 175.1843 186.6547  1.85519933 76301
GSAT0202 (GALILEO 6)    
1 40129U 14050B   26058.18083150  .00000012  00000+0  00000+0 0  9994
2 40129  49.0095 277.0224 1657890 175.8719 185.7122  1.85520639 78441
GSAT0203 (GALILEO 7)    
1 40544U 15017A   26058.52158611 -.00000103  00000+0  00000+0 0  9994
2 40544  56.8234 344.5881 0005161 295.0116  64.9415  1.70475495 67337
GSAT0204 (GALILEO 8)    
1 40545U 15017B   26058.19060141 -.00000102  00000+0  00000+0 0  9997
2 40545  56.8295 344.6151 0004389 286.3298  73.6287  1.70475370 30371
GSAT0205 (GALILEO 9)    
1 40889U 15045A   26043.95434207  .00000078  00000+0  00000+0 0  9996
2 40889  53.6403 225.6057 0359599  59.9658 303.5577  1.67410800 64211
GSAT0206 (GALILEO 10)   
1 40890U 15045B   26061.11237909  .00000012  00000+0  00000+0 0  9994
2 40890  54.9813 224.5577 0003844  49.8147 310.1636  1.70473619 65219
GSAT0208 (GALILEO 11)   
1 41175U 15079B   26060.32760050  .00000013  00000+0  00000+0 0  9999
2 41175  55.7558 104.2170 0004043 323.8191  36.2374  1.70474277 63359
GSAT0211 (GALILEO 14)   
1 41549U 16030A   26061.62472215  .00000011  00000+0  00000+0 0  9997
2 41549  55.1322 224.6224 0003632  25.7212 334.2388  1.70473766 60859
GSAT0210 (GALILEO 13)   
1 41550U 16030B   26061.29541970  .00000012  00000+0  00000+0 0  9998
2 41550  55.1304 224.6297 0001173 192.8511 167.0898  1.70473885 60846
GSAT0207 (GALILEO 15)   
1 41859U 16069A   26059.22748061  .00000008  00000+0  00000+0 0  9997
2 41859  55.4267 104.1007 0005031 309.1503  50.8842  1.70474383 57546
GSAT0212 (GALILEO 16)   
1 41860U 16069B   26058.49445287  .00000005  00000+0  00000+0 0  9998
2 41860  55.4238 104.1162 0003541 336.3420  23.7177  1.70474549 57782
GSAT0213 (GALILEO 17)   
1 41861U 16069C   26058.27531726  .00000004  00000+0  00000+0 0  9998
2 41861  55.4260 104.1303 0005130 291.6331  68.3872  1.70474834 57644
GSAT0214 (GALILEO 18)   
1 41862U 16069D   26059.00795760  .00000007  00000+0  00000+0 0  9994
2 41862  55.4250 104.1026 0004132 296.1582  63.8775  1.70474701 57785
